{
  "type": "FeatureCollection",
  "features": [
    {
      "type": "Feature",
      "properties": {
        "norad_id": 66618,
        "name": "STARLINK-35970",
        "group": "last-30-days",
        "lat": -52.77793726798858,
        "lon": 110.59980034990814,
        "alt_km": 411.5498041199462,
        "timestamp": "2025-12-11T20:41:13.847905+00:00",
        "meta_object_name": "STARLINK-35970",
        "meta_object_id": "2025-271B",
        "meta_epoch": "2025-12-11T14:00:01.999872",
        "meta_mean_motion": 15.5489919,
        "meta_eccentricity": 0.00011375,
        "meta_inclination": 53.1597,
        "meta_ra_of_asc_node": 192.6739,
        "meta_arg_of_pericenter": 96.4141,
        "meta_mean_anomaly": 59.3631,
        "meta_ephemeris_type": 0,
        "meta_classification_type": "U",
        "meta_norad_cat_id": 66618,
        "meta_element_set_no": 999,
        "meta_rev_at_epoch": 405,
        "meta_bstar": -0.033281114,
        "meta_mean_motion_dot": -0.02022491,
        "meta_mean_motion_ddot": 0,
        "tle_line1": "1 66618U 25271B   25345.58335648 -.02022491  00000+0 -33281-1 0  9994",
        "tle_line2": "2 66618  53.1597 192.6739 0001137  96.4141  59.3631 15.54899190  4050"
      },
      "geometry": {
        "type": "Point",
        "coordinates": [
          110.59980034990814,
          -52.77793726798858
        ]
      }
    },
    {
      "type": "Feature",
      "properties": {
        "norad_id": 66619,
        "name": "STARLINK-35951",
        "group": "last-30-days",
        "lat": -37.817648535342265,
        "lon": 47.011159167635576,
        "alt_km": 410.5718853670396,
        "timestamp": "2025-12-11T20:41:13.847915+00:00",
        "meta_object_name": "STARLINK-35951",
        "meta_object_id": "2025-271C",
        "meta_epoch": "2025-12-11T14:00:01.999872",
        "meta_mean_motion": 15.5490264,
        "meta_eccentricity": 0.00010109,
        "meta_inclination": 53.1601,
        "meta_ra_of_asc_node": 192.7685,
        "meta_arg_of_pericenter": 108.722,
        "meta_mean_anomaly": 1.3979,
        "meta_ephemeris_type": 0,
        "meta_classification_type": "U",
        "meta_norad_cat_id": 66619,
        "meta_element_set_no": 999,
        "meta_rev_at_epoch": 405,
        "meta_bstar": -0.033365809,
        "meta_mean_motion_dot": -0.02027247,
        "meta_mean_motion_ddot": 0,
        "tle_line1": "1 66619U 25271C   25345.58335648 -.02027247  00000+0 -33366-1 0  9993",
        "tle_line2": "2 66619  53.1601 192.7685 0001010 108.7220   1.3979 15.54902640  4050"
      },
      "geometry": {
        "type": "Point",
        "coordinates": [
          47.011159167635576,
          -37.817648535342265
        ]
      }
    },
    {
      "type": "Feature",
      "properties": {
        "norad_id": 66620,
        "name": "STARLINK-35936",
        "group": "last-30-days",
        "lat": -33.959846960290086,
        "lon": 41.766117592605006,
        "alt_km": 410.51115402274627,
        "timestamp": "2025-12-11T20:41:13.847927+00:00",
        "meta_object_name": "STARLINK-35936",
        "meta_object_id": "2025-271D",
        "meta_epoch": "2025-12-11T14:00:01.999872",
        "meta_mean_motion": 15.5490174,
        "meta_eccentricity": 8.815e-05,
        "meta_inclination": 53.16,
        "meta_ra_of_asc_node": 192.7819,
        "meta_arg_of_pericenter": 100.6675,
        "meta_mean_anomaly": 3.7033,
        "meta_ephemeris_type": 0,
        "meta_classification_type": "U",
        "meta_norad_cat_id": 66620,
        "meta_element_set_no": 999,
        "meta_rev_at_epoch": 405,
        "meta_bstar": -0.033353909,
        "meta_mean_motion_dot": -0.02026465,
        "meta_mean_motion_ddot": 0,
        "tle_line1": "1 66620U 25271D   25345.58335648 -.02026465  00000+0 -33354-1 0  9993",
        "tle_line2": "2 66620  53.1600 192.7819 0000881 100.6675   3.7033 15.54901740  4057"
      },
      "geometry": {
        "type": "Point",
        "coordinates": [
          41.766117592605006,
          -33.959846960290086
        ]
      }
    },
    {
      "type": "Feature",
      "properties": {
        "norad_id": 66621,
        "name": "STARLINK-35847",
        "group": "last-30-days",
        "lat": -52.18366918852503,
        "lon": 116.3117875907285,
        "alt_km": 411.63863615743685,
        "timestamp": "2025-12-11T20:41:13.847938+00:00",
        "meta_object_name": "STARLINK-35847",
        "meta_object_id": "2025-271E",
        "meta_epoch": "2025-12-11T14:00:01.999872",
        "meta_mean_motion": 15.54901197,
        "meta_eccentricity": 0.00012877,
        "meta_inclination": 53.1597,
        "meta_ra_of_asc_node": 192.666,
        "meta_arg_of_pericenter": 93.449,
        "meta_mean_anomaly": 65.8697,
        "meta_ephemeris_type": 0,
        "meta_classification_type": "U",
        "meta_norad_cat_id": 66621,
        "meta_element_set_no": 999,
        "meta_rev_at_epoch": 405,
        "meta_bstar": -0.033401726,
        "meta_mean_motion_dot": -0.02029267,
        "meta_mean_motion_ddot": 0,
        "tle_line1": "1 66621U 25271E   25345.58335648 -.02029267  00000+0 -33402-1 0  9991",
        "tle_line2": "2 66621  53.1597 192.6660 0001287  93.4490  65.8697 15.54901197  4052"
      },
      "geometry": {
        "type": "Point",
        "coordinates": [
          116.3117875907285,
          -52.18366918852503
        ]
      }
    },
    {
      "type": "Feature",
      "properties": {
        "norad_id": 66622,
        "name": "STARLINK-35950",
        "group": "last-30-days",
        "lat": -39.04724195196998,
        "lon": 48.87825839088686,
        "alt_km": 410.8351167981955,
        "timestamp": "2025-12-11T20:41:13.847948+00:00",
        "meta_object_name": "STARLINK-35950",
        "meta_object_id": "2025-271F",
        "meta_epoch": "2025-12-11T14:00:01.999872",
        "meta_mean_motion": 15.5490503,
        "meta_eccentricity": 0.00010373,
        "meta_inclination": 53.16,
        "meta_ra_of_asc_node": 192.7658,
        "meta_arg_of_pericenter": 86.8572,
        "meta_mean_anomaly": 25.1794,
        "meta_ephemeris_type": 0,
        "meta_classification_type": "U",
        "meta_norad_cat_id": 66622,
        "meta_element_set_no": 999,
        "meta_rev_at_epoch": 405,
        "meta_bstar": -0.033437491,
        "meta_mean_motion_dot": -0.02031315,
        "meta_mean_motion_ddot": 0,
        "tle_line1": "1 66622U 25271F   25345.58335648 -.02031315  00000+0 -33437-1 0  9997",
        "tle_line2": "2 66622  53.1600 192.7658 0001037  86.8572  25.1794 15.54905030  4053"
      },
      "geometry": {
        "type": "Point",
        "coordinates": [
          48.87825839088686,
          -39.04724195196998
        ]
      }
    },
    {
      "type": "Feature",
      "properties": {
        "norad_id": 66623,
        "name": "STARLINK-35920",
        "group": "last-30-days",
        "lat": -41.41262872202869,
        "lon": 52.81031868977262,
        "alt_km": 410.9497790230653,
        "timestamp": "2025-12-11T20:41:13.847958+00:00",
        "meta_object_name": "STARLINK-35920",
        "meta_object_id": "2025-271G",
        "meta_epoch": "2025-12-11T14:00:01.999872",
        "meta_mean_motion": 15.54901451,
        "meta_eccentricity": 9.179e-05,
        "meta_inclination": 53.1602,
        "meta_ra_of_asc_node": 192.7569,
        "meta_arg_of_pericenter": 104.8001,
        "meta_mean_anomaly": 11.0721,
        "meta_ephemeris_type": 0,
        "meta_classification_type": "U",
        "meta_norad_cat_id": 66623,
        "meta_element_set_no": 999,
        "meta_rev_at_epoch": 405,
        "meta_bstar": -0.033359869,
        "meta_mean_motion_dot": -0.0202679,
        "meta_mean_motion_ddot": 0,
        "tle_line1": "1 66623U 25271G   25345.58335648 -.02026790  00000+0 -33360-1 0  9994",
        "tle_line2": "2 66623  53.1602 192.7569 0000917 104.8001  11.0721 15.54901451  4058"
      },
      "geometry": {
        "type": "Point",
        "coordinates": [
          52.81031868977262,
          -41.41262872202869
        ]
      }
    },
    {
      "type": "Feature",
      "properties": {
        "norad_id": 66624,
        "name": "STARLINK-35927",
        "group": "last-30-days",
        "lat": -40.24712900672307,
        "lon": 50.81119688353116,
        "alt_km": 410.83250157882867,
        "timestamp": "2025-12-11T20:41:13.847970+00:00",
        "meta_object_name": "STARLINK-35927",
        "meta_object_id": "2025-271H",
        "meta_epoch": "2025-12-11T14:00:01.999872",
        "meta_mean_motion": 15.54900516,
        "meta_eccentricity": 0.00010456,
        "meta_inclination": 53.16,
        "meta_ra_of_asc_node": 192.7617,
        "meta_arg_of_pericenter": 97.6355,
        "meta_mean_anomaly": 16.319,
        "meta_ephemeris_type": 0,
        "meta_classification_type": "U",
        "meta_norad_cat_id": 66624,
        "meta_element_set_no": 999,
        "meta_rev_at_epoch": 405,
        "meta_bstar": -0.033318762,
        "meta_mean_motion_dot": -0.0202457,
        "meta_mean_motion_ddot": 0,
        "tle_line1": "1 66624U 25271H   25345.58335648 -.02024570  00000+0 -33319-1 0  9993",
        "tle_line2": "2 66624  53.1600 192.7617 0001045  97.6355  16.3190 15.54900516  4054"
      },
      "geometry": {
        "type": "Point",
        "coordinates": [
          50.81119688353116,
          -40.24712900672307
        ]
      }
    }
  ]
}